{
  "type": "FeatureCollection",
  "features": [
    {
      "type": "Feature",
      "properties": {
        "name": "France métropolitaine",
        "iso_a2": "FR",
        "iso_a3": "FRA"
      },
      "geometry": {
        "type": "Polygon",
        "coordinates": [
          [
            [2.55, 51.10],
            [2.88, 50.91],
            [3.12, 50.77],
            [3.78, 50.41],
            [4.25, 49.98],
            [4.83, 49.92],
            [5.48, 49.58],
            [5.82, 49.54],
            [6.38, 49.20],
            [7.02, 49.03],
            [7.63, 49.04],
            [8.18, 48.97],
            [7.85, 48.54],
            [7.58, 48.06],
            [7.54, 47.58],
            [7.15, 47.45],
            [6.83, 47.31],
            [6.39, 46.72],
            [6.08, 46.36],
            [6.83, 46.35],
            [6.87, 45.92],
            [7.00, 45.69],
            [6.73, 45.28],
            [7.04, 45.06],
            [6.92, 44.42],
            [7.52, 43.78],
            [7.27, 43.68],
            [6.93, 43.55],
            [6.38, 43.08],
            [5.89, 43.07],
            [5.34, 43.21],
            [4.82, 43.34],
            [4.32, 43.54],
            [3.87, 43.52],
            [3.38, 43.28],
            [3.03, 43.03],
            [3.11, 42.47],
            [2.80, 42.45],
            [2.08, 42.43],
            [1.77, 42.58],
            [1.44, 42.60],
            [0.72, 42.81],
            [0.32, 42.74],
            [-0.31, 42.78],
            [-0.82, 43.01],
            [-1.78, 43.36],
            [-1.52, 43.69],
            [-1.23, 44.52],
            [-1.17, 45.58],
            [-1.50, 46.35],
            [-2.30, 47.12],
            [-2.73, 47.38],
            [-3.53, 47.78],
            [-4.48, 47.88],
            [-4.72, 48.33],
            [-4.48, 48.68],
            [-3.85, 48.72],
            [-3.02, 48.87],
            [-2.02, 48.65],
            [-1.62, 48.63],
            [-1.85, 48.88],
            [-1.68, 49.68],
            [-1.12, 49.38],
            [-0.22, 49.33],
            [0.12, 49.52],
            [0.65, 49.88],
            [1.37, 50.12],
            [1.60, 50.50],
            [1.85, 50.95],
            [2.55, 51.10]
          ]
        ]
      }
    }
  ]
}
